[{"OBJECT_NAME":"STARLINK-31443","OBJECT_ID":"2024-062V","EPOCH":"2026-03-09T19:16:57.761184","MEAN_MOTION":15.30194544,"ECCENTRICITY":0.00011143,"INCLINATION":53.1598,"RA_OF_ASC_NODE":242.5387,"ARG_OF_PERICENTER":90.0729,"MEAN_ANOMALY":270.0399,"EPHEMERIS_TYPE":0,"CLASSIFICATION_TYPE":"U","NORAD_CAT_ID":59393,"ELEMENT_SET_NO":999,"REV_AT_EPOCH":10986,"BSTAR":-5.166024e-5,"MEAN_MOTION_DOT":-1.888e-5,"MEAN_MOTION_DDOT":0},{"OBJECT_NAME":"CZ-6A DEB","OBJECT_ID":"2022-151NB","EPOCH":"2026-03-09T18:26:17.609568","MEAN_MOTION":15.22372787,"ECCENTRICITY":0.00267955,"INCLINATION":98.6489,"RA_OF_ASC_NODE":154.0342,"ARG_OF_PERICENTER":180.4296,"MEAN_ANOMALY":179.6918,"EPHEMERIS_TYPE":0,"CLASSIFICATION_TYPE":"U","NORAD_CAT_ID":54601,"ELEMENT_SET_NO":999,"REV_AT_EPOCH":17694,"BSTAR":0.011449911,"MEAN_MOTION_DOT":0.00276508,"MEAN_MOTION_DDOT":0}]
